1   369U 62039A   25101.87860105  .00004454  00000-0  43458-3 0  9996
2   369  98.5064 148.9936 0083138  90.6728 270.4015 14.90429034351764
1 00369U 62039A   25102.48281806  .00004258  00000-0  41573-3 0  9997
2 00369  98.5064 149.6440 0083120  88.7455 272.3282 14.90434157351419
1 00369U 62039A   25102.68422301  .00004396  00000-0  42895-3 0  9997
2 00369  98.5065 149.8609 0083126  88.0999 272.9734 14.90436461351442
1   369U 62039A   25103.15416707  .00004501  00000-0  43891-3 0  9998
2   369  98.5063 150.3669 0083106  86.5827 274.4891 14.90441121351950
1 00369U 62039A   25103.69124460  .00003876  00000-0  37895-3 0  9990
2 00369  98.5062 150.9451 0083097  84.8502 276.2191 14.90444491351590
1   369U 62039A   25104.49685783  .00003515  00000-0  34424-3 0  9994
2   369  98.5059 151.8124 0083042  82.2638 278.7997 14.90450384352157
1 00369U 62039A   25104.69826064  .00003433  00000-0  33638-3 0  9990
2 00369  98.5057 152.0292 0083032  81.6111 279.4507 14.90451755351744
1   369U 62039A   25105.50387018  .00003063  00000-0  30087-3 0  9996
2   369  98.5054 152.8964 0082949  79.0331 282.0203 14.90456370352300
1 00369U 62039A   25105.57100411  .00003116  00000-0  30603-3 0  9996
2 00369  98.5053 152.9686 0082947  78.8211 282.2315 14.90456994351872
1 00369U 62039A   25105.70527212  .00003114  00000-0  30577-3 0  9991
2 00369  98.5053 153.1132 0082933  78.3895 282.6615 14.90457702351896
1 00369U 62039A   25106.57801130  .00003493  00000-0  34212-3 0  9991
2 00369  98.5050 154.0527 0082888  75.5933 285.4464 14.90464084352022
1   369U 62039A   25106.57801130  .00003493  00000-0  34212-3 0  9991
2   369  98.5050 154.0527 0082888  75.5933 285.4464 14.90464084352460
1 00369U 62039A   25107.58501315  .00003412  00000-0  33430-3 0  9997
2 00369  98.5048 155.1367 0082840  72.3830 288.6412 14.90470614352172
1 00369U 62039A   25107.71927969  .00003422  00000-0  33532-3 0  9993
2 00369  98.5047 155.2812 0082839  71.9524 289.0696 14.90471502352198
1   369U 62039A   25107.71927969  .00003422  00000-0  33532-3 0  9993
2   369  98.5047 155.2812 0082839  71.9524 289.0696 14.90471502352637
1   369U 62039A   25108.72627554  .00003174  00000-0  31143-3 0  9992
2   369  98.5046 156.3653 0082799  68.7429 292.2604 14.90478132352781
1 00369U 62039A   25109.73326672  .00003149  00000-0  30908-3 0  9991
2 00369  98.5047 157.4492 0082772  65.5406 295.4415 14.90484743352494
1   369U 62039A   25109.73326672  .00003149  00000-0  30908-3 0  9991
2   369  98.5047 157.4492 0082772  65.5406 295.4415 14.90484743352933
1 00369U 62039A   25110.67312054  .00003387  00000-0  33180-3 0  9994
2 00369  98.5047 158.4608 0082781  62.5474 298.4129 14.90491532352631
1   369U 62039A   25111.07591376  .00003210  00000-0  31479-3 0  9999
2   369  98.5048 158.8944 0082757  61.2476 299.7022 14.90493718353130
1 00369U 62039A   25111.54583732  .00003826  00000-0  37387-3 0  9995
2 00369  98.5048 159.4002 0082741  59.7514 301.1860 14.90499129352768
1 00369U 62039A   25111.74723293  .00003826  00000-0  37386-3 0  9994
2 00369  98.5048 159.6170 0082736  59.1077 301.8241 14.90500548352799
1   369U 62039A   25112.08289171  .00004131  00000-0  40302-3 0  9996
2   369  98.5048 159.9784 0082751  58.0490 302.8737 14.90503655353285
1 00369U 62039A   25112.55281294  .00003631  00000-0  35509-3 0  9993
2 00369  98.5049 160.4842 0082738  56.5418 304.3673 14.90506225352917
1 00369U 62039A   25113.08986393  .00003469  00000-0  33954-3 0  9995
2 00369  98.5048 161.0622 0082687  54.8165 306.0760 14.90510158352996
1   369U 62039A   25113.08986393  .00003469  00000-0  33954-3 0  9995
2   369  98.5048 161.0622 0082687  54.8165 306.0760 14.90510158353436
1   369U 62039A   25114.09683044  .00003020  00000-0  29656-3 0  9991
2   369  98.5046 162.1462 0082610  51.5645 309.2948 14.90517081353582
1 00369U 62039A   25114.56674617  .00003139  00000-0  30793-3 0  9994
2 00369  98.5047 162.6522 0082554  50.0429 310.8000 14.90520980353215
1   369U 62039A   25115.10379172  .00003095  00000-0  30375-3 0  9990
2   369  98.5043 163.2303 0082510  48.3049 312.5189 14.90524532353736
1 00369U 62039A   25115.57370568  .00002894  00000-0  28444-3 0  9991
2 00369  98.5041 163.7361 0082476  46.7883 314.0182 14.90527078353369
1 00369U 62039A   25115.70796660  .00002895  00000-0  28452-3 0  9991
2 00369  98.5042 163.8807 0082468  46.3539 314.4476 14.90527883353387
1   369U 62039A   25116.11074874  .00003066  00000-0  30090-3 0  9995
2   369  98.5040 164.3144 0082423  45.0570 315.7292 14.90530870353882
1 00369U 62039A   25116.71492082  .00003039  00000-0  29838-3 0  9994
2 00369  98.5037 164.9647 0082363  43.1156 317.6471 14.90534480353537
1   369U 62039A   25117.11770095  .00003409  00000-0  33381-3 0  9991
2   369  98.5035 165.3983 0082325  41.8142 318.9325 14.90538049354034
1 00369U 62039A   25117.52048051  .00003500  00000-0  34248-3 0  9991
2 00369  98.5033 165.8318 0082290  40.5267 320.2036 14.90540839353656
1   369U 62039A   25118.12464813  .00003760  00000-0  36745-3 0  9998
2   369  98.5031 166.4821 0082234  38.5871 322.1183 14.90545543354186
1 00369U 62039A   25118.86307305  .00003287  00000-0  32212-3 0  9990
2 00369  98.5029 167.2770 0082185  36.2425 324.4320 14.90549378353851
1   369U 62039A   25119.19871980  .00003056  00000-0  29995-3 0  9990
2   369  98.5029 167.6382 0082158  35.1567 325.5031 14.90551260354348
1 00369U 62039A   25121.81674637  .00003117  00000-0  30581-3 0  9993
2 00369  98.5028 170.4562 0081977  26.7490 333.7918 14.90568783354295
1   369U 62039A   25121.88387482  .00003098  00000-0  30393-3 0  9998
2   369  98.5028 170.5284 0081963  26.5314 334.0061 14.90569152354749
1 00369U 62039A   25122.62228589  .00003212  00000-0  31481-3 0  9990
2 00369  98.5028 171.3233 0081921  24.1604 336.3420 14.90574870354413
1 00369U 62039A   25122.89079829  .00003218  00000-0  31542-3 0  9994
2 00369  98.5028 171.6123 0081906  23.2962 337.1932 14.90576760354455
1   369U 62039A   25123.09218262  .00003217  00000-0  31536-3 0  9995
2   369  98.5027 171.8291 0081901  22.6654 337.8145 14.90578568354921
1 00369U 62039A   25123.56207804  .00002991  00000-0  29366-3 0  9993
2 00369  98.5028 172.3349 0081861  21.1188 339.3375 14.90580970354554
1 00369U 62039A   25123.89771735  .00002613  00000-0  25748-3 0  9999
2 00369  98.5028 172.6962 0081831  20.0354 340.4042 14.90582016354601
1   369U 62039A   25124.09910056  .00002655  00000-0  26147-3 0  9993
2   369  98.5028 172.9131 0081825  19.3712 341.0583 14.90583528355072
1 00369U 62039A   25124.56899443  .00002293  00000-0  22676-3 0  9992
2 00369  98.5028 173.4189 0081780  17.8369 342.5687 14.90585503354707
1 00369U 62039A   25124.70324970  .00002248  00000-0  22248-3 0  9991
2 00369  98.5029 173.5634 0081763  17.4016 342.9972 14.90586127354726
1   369U 62039A   25125.17314255  .00002105  00000-0  20878-3 0  9997
2   369  98.5027 174.0692 0081729  15.8679 344.5069 14.90588469355236
1 00369U 62039A   25125.71016221  .00001996  00000-0  19828-3 0  9999
2 00369  98.5028 174.6473 0081684  14.1239 346.2233 14.90590980354876
1   369U 62039A   25126.18005407  .00001936  00000-0  19261-3 0  9990
2   369  98.5027 175.1530 0081659  12.5946 347.7284 14.90592879355382
1 00369U 62039A   25126.71707264  .00001858  00000-0  18510-3 0  9998
2 00369  98.5026 175.7310 0081602  10.8539 349.4414 14.90594731355024
1   369U 62039A   25127.18696320  .00001890  00000-0  18817-3 0  9996
2   369  98.5025 176.2368 0081556   9.3260 350.9447 14.90596617355538
1 00369U 62039A   25127.85823473  .00001798  00000-0  17934-3 0  9997
2 00369  98.5024 176.9593 0081496   7.1494 353.0863 14.90598639355196
1   369U 62039A   25128.19386998  .00001997  00000-0  19849-3 0  9999
2   369  98.5024 177.3205 0081463   6.0602 354.1580 14.90600533355683
1 00369U 62039A   25128.73088590  .00002069  00000-0  20537-3 0  9993
2 00369  98.5023 177.8985 0081427   4.3260 355.8641 14.90602692355328
1 00369U 62039A   25129.20077383  .00002222  00000-0  21998-3 0  9997
2 00369  98.5022 178.4043 0081385   2.7971 357.3684 14.90605104355395
1   369U 62039A   25129.20077383  .00002222  00000-0  21998-3 0  9997
2   369  98.5022 178.4043 0081385   2.7971 357.3684 14.90605104355834
1 00369U 62039A   25129.60353483  .00002044  00000-0  20300-3 0  9997
2 00369  98.5022 178.8378 0081344   1.4930 358.6513 14.90606049355457
1   369U 62039A   25130.20767488  .00002383  00000-0  23543-3 0  9997
2   369  98.5021 179.4880 0081299 359.5385   0.5742 14.90609645355981
1 00369U 62039A   25130.54330814  .00002085  00000-0  20689-3 0  9990
2 00369  98.5020 179.8492 0081269 358.4580   1.6373 14.90610037355591
1 00369U 62039A   25130.67756046  .00001901  00000-0  18924-3 0  9998
2 00369  98.5022 179.9938 0081328 357.9975   2.0904 14.90610357355610
1 00369U 62039A   25131.55020429  .00001880  00000-0  18729-3 0  9994
2 00369  98.5021 180.9329 0081266 355.1518   4.8902 14.90613819355747
1   369U 62039A   25131.88583631  .00001756  00000-0  17540-3 0  9991
2   369  98.5021 181.2941 0081242 354.0624   5.9621 14.90614442356239
1 00369U 62039A   25131.95296259  .00001755  00000-0  17531-3 0  9995
2 00369  98.5021 181.3664 0081236 353.8417   6.1792 14.90614724355809
1 00369U 62039A   25132.08721472  .00001924  00000-0  19146-3 0  9992
2 00369  98.5020 181.5109 0081226 353.4033   6.6106 14.90616329355822
1 00369U 62039A   25132.89272967  .00001692  00000-0  16928-3 0  9998
2 00369  98.5019 182.3779 0081160 350.7847   9.1874 14.90618283355946
1   369U 62039A   25133.09410802  .00001669  00000-0  16702-3 0  9997
2   369  98.5019 182.5946 0081142 350.1215   9.8402 14.90619004356416
1 00369U 62039A   25133.56399105  .00001644  00000-0  16469-3 0  9994
2 00369  98.5019 183.1004 0081099 348.5921  11.3454 14.90620639356044
1 00369U 62039A   25133.69824325  .00001611  00000-0  16151-3 0  9997
2 00369  98.5019 183.2449 0081091 348.1579  11.7728 14.90620976356069
1   369U 62039A   25134.10099903  .00001611  00000-0  16150-3 0  9999
2   369  98.5019 183.6783 0081063 346.8436  13.0664 14.90622644356563
